{
  "type": "FeatureCollection",
  "features": [
    {
      "type": "Feature",
      "properties": {
        "norad_id": 34540,
        "name": "IRIDIUM 33 DEB",
        "group": "iridium-33-debris",
        "lat": 16.3102638414338,
        "lon": 130.3332895582309,
        "alt_km": 636.5524090941899,
        "timestamp": "2025-12-04T09:47:37.905068+00:00",
        "meta_object_name": "IRIDIUM 33 DEB",
        "meta_object_id": "1997-051JH",
        "meta_epoch": "2025-12-03T05:26:21.211296",
        "meta_mean_motion": 14.74981692,
        "meta_eccentricity": 0.0014801,
        "meta_inclination": 86.3092,
        "meta_ra_of_asc_node": 311.9555,
        "meta_arg_of_pericenter": 194.145,
        "meta_mean_anomaly": 180.1243,
        "meta_ephemeris_type": 0,
        "meta_classification_type": "U",
        "meta_norad_cat_id": 34540,
        "meta_element_set_no": 999,
        "meta_rev_at_epoch": 88881,
        "meta_bstar": 0.0021818,
        "meta_mean_motion_dot": 0.00014731,
        "meta_mean_motion_ddot": 0,
        "tle_line1": "1 34540U 97051JH  25337.22663439  .00014731  00000+0  21818-2 0  9990",
        "tle_line2": "2 34540  86.3092 311.9555 0014801 194.1450 180.1243 14.74981692888816"
      },
      "geometry": {
        "type": "Point",
        "coordinates": [
          130.3332895582309,
          16.3102638414338
        ]
      }
    },
    {
      "type": "Feature",
      "properties": {
        "norad_id": 34648,
        "name": "IRIDIUM 33 DEB",
        "group": "iridium-33-debris",
        "lat": 65.60310000252943,
        "lon": -66.69110870370427,
        "alt_km": 874.2603535870239,
        "timestamp": "2025-12-04T09:47:37.905079+00:00",
        "meta_object_name": "IRIDIUM 33 DEB",
        "meta_object_id": "1997-051JZ",
        "meta_epoch": "2025-12-01T03:11:38.418720",
        "meta_mean_motion": 14.1087899,
        "meta_eccentricity": 0.01868529,
        "meta_inclination": 86.3903,
        "meta_ra_of_asc_node": 286.6295,
        "meta_arg_of_pericenter": 334.6513,
        "meta_mean_anomaly": 24.5588,
        "meta_ephemeris_type": 0,
        "meta_classification_type": "U",
        "meta_norad_cat_id": 34648,
        "meta_element_set_no": 999,
        "meta_rev_at_epoch": 84797,
        "meta_bstar": 0.0079356223,
        "meta_mean_motion_dot": 0.00016788,
        "meta_mean_motion_ddot": 0,
        "tle_line1": "1 34648U 97051JZ  25335.13308355  .00016788  00000+0  79356-2 0  9994",
        "tle_line2": "2 34648  86.3903 286.6295 0186852 334.6513  24.5588 14.10878990847973"
      },
      "geometry": {
        "type": "Point",
        "coordinates": [
          -66.69110870370427,
          65.60310000252943
        ]
      }
    },
    {
      "type": "Feature",
      "properties": {
        "norad_id": 34651,
        "name": "IRIDIUM 33 DEB",
        "group": "iridium-33-debris",
        "lat": 49.64489341107082,
        "lon": 148.50723078994943,
        "alt_km": 904.0303949686686,
        "timestamp": "2025-12-04T09:47:37.905089+00:00",
        "meta_object_name": "IRIDIUM 33 DEB",
        "meta_object_id": "1997-051KC",
        "meta_epoch": "2025-12-02T05:19:54.206688",
        "meta_mean_motion": 14.25531146,
        "meta_eccentricity": 0.0141862,
        "meta_inclination": 86.2826,
        "meta_ra_of_asc_node": 145.0488,
        "meta_arg_of_pericenter": 237.4272,
        "meta_mean_anomaly": 121.3155,
        "meta_ephemeris_type": 0,
        "meta_classification_type": "U",
        "meta_norad_cat_id": 34651,
        "meta_element_set_no": 999,
        "meta_rev_at_epoch": 85746,
        "meta_bstar": 0.0036308,
        "meta_mean_motion_dot": 9.56e-05,
        "meta_mean_motion_ddot": 0,
        "tle_line1": "1 34651U 97051KC  25336.22215517  .00009560  00000+0  36308-2 0  9996",
        "tle_line2": "2 34651  86.2826 145.0488 0141862 237.4272 121.3155 14.25531146857462"
      },
      "geometry": {
        "type": "Point",
        "coordinates": [
          148.50723078994943,
          49.64489341107082
        ]
      }
    },
    {
      "type": "Feature",
      "properties": {
        "norad_id": 34652,
        "name": "IRIDIUM 33 DEB",
        "group": "iridium-33-debris",
        "lat": 84.2845401927396,
        "lon": 123.84000850472643,
        "alt_km": 690.7334249645237,
        "timestamp": "2025-12-04T09:47:37.905100+00:00",
        "meta_object_name": "IRIDIUM 33 DEB",
        "meta_object_id": "1997-051KD",
        "meta_epoch": "2025-12-02T12:03:44.445600",
        "meta_mean_motion": 14.61898676,
        "meta_eccentricity": 0.00270627,
        "meta_inclination": 86.3312,
        "meta_ra_of_asc_node": 344.5601,
        "meta_arg_of_pericenter": 334.9096,
        "meta_mean_anomaly": 177.4047,
        "meta_ephemeris_type": 0,
        "meta_classification_type": "U",
        "meta_norad_cat_id": 34652,
        "meta_element_set_no": 999,
        "meta_rev_at_epoch": 88334,
        "meta_bstar": 0.0012168376,
        "meta_mean_motion_dot": 6.139e-05,
        "meta_mean_motion_ddot": 0,
        "tle_line1": "1 34652U 97051KD  25336.50259775  .00006139  00000+0  12168-2 0  9999",
        "tle_line2": "2 34652  86.3312 344.5601 0027062 334.9096 177.4047 14.61898676883341"
      },
      "geometry": {
        "type": "Point",
        "coordinates": [
          123.84000850472643,
          84.2845401927396
        ]
      }
    },
    {
      "type": "Feature",
      "properties": {
        "norad_id": 34690,
        "name": "IRIDIUM 33 DEB",
        "group": "iridium-33-debris",
        "lat": 15.333655957929494,
        "lon": -140.38246611555968,
        "alt_km": 713.0611292414133,
        "timestamp": "2025-12-04T09:47:37.905110+00:00",
        "meta_object_name": "IRIDIUM 33 DEB",
        "meta_object_id": "1997-051KM",
        "meta_epoch": "2025-12-03T11:52:36.056064",
        "meta_mean_motion": 14.55037039,
        "meta_eccentricity": 0.0011766,
        "meta_inclination": 86.3793,
        "meta_ra_of_asc_node": 41.009,
        "meta_arg_of_pericenter": 56.8306,
        "meta_mean_anomaly": 7.0908,
        "meta_ephemeris_type": 0,
        "meta_classification_type": "U",
        "meta_norad_cat_id": 34690,
        "meta_element_set_no": 999,
        "meta_rev_at_epoch": 87960,
        "meta_bstar": 0.00070543794,
        "meta_mean_motion_dot": 3.062e-05,
        "meta_mean_motion_ddot": 0,
        "tle_line1": "1 34690U 97051KM  25337.49486176  .00003062  00000+0  70544-3 0  9992",
        "tle_line2": "2 34690  86.3793  41.0090 0011766  56.8306   7.0908 14.55037039879604"
      },
      "geometry": {
        "type": "Point",
        "coordinates": [
          -140.38246611555968,
          15.333655957929494
        ]
      }
    },
    {
      "type": "Feature",
      "properties": {
        "norad_id": 34693,
        "name": "IRIDIUM 33 DEB",
        "group": "iridium-33-debris",
        "lat": -54.15763994568591,
        "lon": 133.0879062298598,
        "alt_km": 509.20557047183956,
        "timestamp": "2025-12-04T09:47:37.905120+00:00",
        "meta_object_name": "IRIDIUM 33 DEB",
        "meta_object_id": "1997-051KQ",
        "meta_epoch": "2025-12-03T09:49:19.549920",
        "meta_mean_motion": 15.24618598,
        "meta_eccentricity": 0.0016087,
        "meta_inclination": 86.3049,
        "meta_ra_of_asc_node": 308.4487,
        "meta_arg_of_pericenter": 66.5202,
        "meta_mean_anomaly": 88.8029,
        "meta_ephemeris_type": 0,
        "meta_classification_type": "U",
        "meta_norad_cat_id": 34693,
        "meta_element_set_no": 999,
        "meta_rev_at_epoch": 88772,
        "meta_bstar": 0.0053871746,
        "meta_mean_motion_dot": 0.00135539,
        "meta_mean_motion_ddot": 0,
        "tle_line1": "1 34693U 97051KQ  25337.40925405  .00135539  00000+0  53872-2 0  9998",
        "tle_line2": "2 34693  86.3049 308.4487 0016087  66.5202  88.8029 15.24618598887720"
      },
      "geometry": {
        "type": "Point",
        "coordinates": [
          133.0879062298598,
          -54.15763994568591
        ]
      }
    },
    {
      "type": "Feature",
      "properties": {
        "norad_id": 34696,
        "name": "IRIDIUM 33 DEB",
        "group": "iridium-33-debris",
        "lat": 12.819265600567311,
        "lon": 32.26633980384963,
        "alt_km": 733.2809926466607,
        "timestamp": "2025-12-04T09:47:37.905130+00:00",
        "meta_object_name": "IRIDIUM 33 DEB",
        "meta_object_id": "1997-051KT",
        "meta_epoch": "2025-12-03T04:28:11.099712",
        "meta_mean_motion": 14.64210204,
        "meta_eccentricity": 0.0074906,
        "meta_inclination": 86.1858,
        "meta_ra_of_asc_node": 31.9639,
        "meta_arg_of_pericenter": 199.8052,
        "meta_mean_anomaly": 216.5408,
        "meta_ephemeris_type": 0,
        "meta_classification_type": "U",
        "meta_norad_cat_id": 34696,
        "meta_element_set_no": 999,
        "meta_rev_at_epoch": 86533,
        "meta_bstar": 0.0085473,
        "meta_mean_motion_dot": 0.00047152,
        "meta_mean_motion_ddot": 0,
        "tle_line1": "1 34696U 97051KT  25337.18623958  .00047152  00000+0  85473-2 0  9999",
        "tle_line2": "2 34696  86.1858  31.9639 0074906 199.8052 216.5408 14.64210204865332"
      },
      "geometry": {
        "type": "Point",
        "coordinates": [
          32.26633980384963,
          12.819265600567311
        ]
      }
    }
  ]
}